[Satellite]
VERSION=1.1
NAME=FENGYUN 3C
NICKNAME=FENGYUN 3C
TLE1=1 39260U 13052A   17186.23423729 -.00000012  00000-0  14629-4 0  9996
TLE2=2 39260  98.6475 255.5164 0000816  51.3212 308.8048 14.19650430195940
